IRIDIUM 124             
1 42810U 17039H   26062.25377063  .00000519  00000+0  14842-3 0  9990
2 42810  86.4540 334.6635 0002114  83.9364 276.2078 14.43268115459831
IRIDIUM 128             
1 42811U 17039J   26062.50984539  .00000037  00000+0  61950-5 0  9990
2 42811  86.3907  69.3316 0002050  95.1295 265.0135 14.34217712454835
IRIDIUM 121             
1 42812U 17039K   26062.46836744  .00000009  00000+0 -37705-5 0  9991
2 42812  86.3960  37.8387 0002107  90.1901 269.9536 14.34217461454676
IRIDIUM 133             
1 42955U 17061A   26062.47179001  .00000021  00000+0  59451-6 0  9997
2 42955  86.3911  69.4631 0002018  90.5360 269.6067 14.34217485439627
IRIDIUM 100             
1 42956U 17061B   26062.46544696  .00000007  00000+0 -44440-5 0  9999
2 42956  86.3909  69.3868 0002046  90.1779 269.9651 14.34217425439623
IRIDIUM 122             
1 42957U 17061C   26062.50350024  .00000110  00000+0  32388-4 0  9996
2 42957  86.3907  69.3705 0002121  87.8874 272.2565 14.34218083439638
IRIDIUM 129             
1 42958U 17061D   26062.45910512  .00000088  00000+0  24401-4 0  9996
2 42958  86.3909  69.4552 0002537  87.3556 272.7930 14.34218225439645
IRIDIUM 119             
1 42959U 17061E   26062.49716069  .00000031  00000+0  39956-5 0  9992
2 42959  86.3910  69.4345 0002258  85.9828 274.1626 14.34217776439664
IRIDIUM 107             
1 42960U 17061F   26062.44641895  .00000043  00000+0  83087-5 0  9990
2 42960  86.3909  69.4764 0001901  86.2532 273.8881 14.34217857439668
IRIDIUM 132             
1 42961U 17061G   26062.45276116  .00000102  00000+0  29354-4 0  9994
2 42961  86.3910  69.4540 0002099  90.1652 269.9784 14.34218062439666
IRIDIUM 136             
1 42962U 17061H   26062.48447508  .00000017  00000+0 -11670-5 0  9992
2 42962  86.3908  69.4467 0002170  87.1872 272.9573 14.34217797439688
IRIDIUM 139             
1 42963U 17061J   26062.49081795  .00000033  00000+0  46412-5 0  9995
2 42963  86.3911  69.5044 0002094  90.7333 269.4103 14.34217776439690
IRIDIUM 125             
1 42964U 17061K   26062.47813162  .00000083  00000+0  22735-4 0  9991
2 42964  86.3911  69.5690 0002044  74.7319 285.4103 14.34218158439704
IRIDIUM 135             
1 43070U 17083A   26062.31272699  .00000378  00000+0  12803-3 0  9992
2 43070  86.4016   6.2559 0002169  85.8966 274.2478 14.34217719428971
IRIDIUM 138             
1 43071U 17083B   26062.33809243  .00000042  00000+0  77621-5 0  9995
2 43071  86.4029   5.9246 0002389  77.3211 282.8252 14.34217891428963
IRIDIUM 116             
1 43072U 17083C   26062.37614773  .00000024  00000+0  16193-5 0  9999
2 43072  86.4017   6.2169 0001972  92.8085 267.3336 14.34217714429008
IRIDIUM 130             
1 43073U 17083D   26062.41420227  .00000166  00000+0  52154-4 0  9997
2 43073  86.4022   6.4657 0001869  87.6291 272.5119 14.34218375428959
