[{"OBJECT_NAME":"IRIDIUM 124","OBJECT_ID":"2017-039H","EPOCH":"2026-03-03T06:05:25.782432","MEAN_MOTION":14.43268115,"ECCENTRICITY":0.0002114,"INCLINATION":86.454,"RA_OF_ASC_NODE":334.6635,"ARG_OF_PERICENTER":83.9364,"MEAN_ANOMALY":276.2078,"EPHEMERIS_TYPE":0,"CLASSIFICATION_TYPE":"U","NORAD_CAT_ID":42810,"ELEMENT_SET_NO":999,"REV_AT_EPOCH":45983,"BSTAR":0.00014842,"MEAN_MOTION_DOT":5.19e-6,"MEAN_MOTION_DDOT":0},{"OBJECT_NAME":"IRIDIUM 128","OBJECT_ID":"2017-039J","EPOCH":"2026-03-03T12:14:10.641696","MEAN_MOTION":14.34217712,"ECCENTRICITY":0.000205,"INCLINATION":86.3907,"RA_OF_ASC_NODE":69.3316,"ARG_OF_PERICENTER":95.1295,"MEAN_ANOMALY":265.0135,"EPHEMERIS_TYPE":0,"CLASSIFICATION_TYPE":"U","NORAD_CAT_ID":42811,"ELEMENT_SET_NO":999,"REV_AT_EPOCH":45483,"BSTAR":6.195e-6,"MEAN_MOTION_DOT":3.7e-7,"MEAN_MOTION_DDOT":0},{"OBJECT_NAME":"IRIDIUM 121","OBJECT_ID":"2017-039K","EPOCH":"2026-03-03T11:14:26.946816","MEAN_MOTION":14.34217461,"ECCENTRICITY":0.0002107,"INCLINATION":86.396,"RA_OF_ASC_NODE":37.8387,"ARG_OF_PERICENTER":90.1901,"MEAN_ANOMALY":269.9536,"EPHEMERIS_TYPE":0,"CLASSIFICATION_TYPE":"U","NORAD_CAT_ID":42812,"ELEMENT_SET_NO":999,"REV_AT_EPOCH":45467,"BSTAR":-3.7705e-6,"MEAN_MOTION_DOT":9.0e-8,"MEAN_MOTION_DDOT":0},{"OBJECT_NAME":"IRIDIUM 133","OBJECT_ID":"2017-061A","EPOCH":"2026-03-03T11:19:22.656864","MEAN_MOTION":14.34217485,"ECCENTRICITY":0.0002018,"INCLINATION":86.3911,"RA_OF_ASC_NODE":69.4631,"ARG_OF_PERICENTER":90.536,"MEAN_ANOMALY":269.6067,"EPHEMERIS_TYPE":0,"CLASSIFICATION_TYPE":"U","NORAD_CAT_ID":42955,"ELEMENT_SET_NO":999,"REV_AT_EPOCH":43962,"BSTAR":5.9451e-7,"MEAN_MOTION_DOT":2.1e-7,"MEAN_MOTION_DDOT":0},{"OBJECT_NAME":"IRIDIUM 100","OBJECT_ID":"2017-061B","EPOCH":"2026-03-03T11:10:14.617344","MEAN_MOTION":14.34217425,"ECCENTRICITY":0.0002046,"INCLINATION":86.3909,"RA_OF_ASC_NODE":69.3868,"ARG_OF_PERICENTER":90.1779,"MEAN_ANOMALY":269.9651,"EPHEMERIS_TYPE":0,"CLASSIFICATION_TYPE":"U","NORAD_CAT_ID":42956,"ELEMENT_SET_NO":999,"REV_AT_EPOCH":43962,"BSTAR":-4.444e-6,"MEAN_MOTION_DOT":7.0e-8,"MEAN_MOTION_DDOT":0},{"OBJECT_NAME":"IRIDIUM 122","OBJECT_ID":"2017-061C","EPOCH":"2026-03-03T12:05:02.420736","MEAN_MOTION":14.34218083,"ECCENTRICITY":0.0002121,"INCLINATION":86.3907,"RA_OF_ASC_NODE":69.3705,"ARG_OF_PERICENTER":87.8874,"MEAN_ANOMALY":272.2565,"EPHEMERIS_TYPE":0,"CLASSIFICATION_TYPE":"U","NORAD_CAT_ID":42957,"ELEMENT_SET_NO":999,"REV_AT_EPOCH":43963,"BSTAR":3.2388e-5,"MEAN_MOTION_DOT":1.1e-6,"MEAN_MOTION_DDOT":0},{"OBJECT_NAME":"IRIDIUM 129","OBJECT_ID":"2017-061D","EPOCH":"2026-03-03T11:01:06.682368","MEAN_MOTION":14.34218225,"ECCENTRICITY":0.0002537,"INCLINATION":86.3909,"RA_OF_ASC_NODE":69.4552,"ARG_OF_PERICENTER":87.3556,"MEAN_ANOMALY":272.793,"EPHEMERIS_TYPE":0,"CLASSIFICATION_TYPE":"U","NORAD_CAT_ID":42958,"ELEMENT_SET_NO":999,"REV_AT_EPOCH":43964,"BSTAR":2.4401e-5,"MEAN_MOTION_DOT":8.8e-7,"MEAN_MOTION_DDOT":0},{"OBJECT_NAME":"IRIDIUM 119","OBJECT_ID":"2017-061E","EPOCH":"2026-03-03T11:55:54.683616","MEAN_MOTION":14.34217776,"ECCENTRICITY":0.0002258,"INCLINATION":86.391,"RA_OF_ASC_NODE":69.4345,"ARG_OF_PERICENTER":85.9828,"MEAN_ANOMALY":274.1626,"EPHEMERIS_TYPE":0,"CLASSIFICATION_TYPE":"U","NORAD_CAT_ID":42959,"ELEMENT_SET_NO":999,"REV_AT_EPOCH":43966,"BSTAR":3.9956e-6,"MEAN_MOTION_DOT":3.1e-7,"MEAN_MOTION_DDOT":0},{"OBJECT_NAME":"IRIDIUM 107","OBJECT_ID":"2017-061F","EPOCH":"2026-03-03T10:42:50.597280","MEAN_MOTION":14.34217857,"ECCENTRICITY":0.0001901,"INCLINATION":86.3909,"RA_OF_ASC_NODE":69.4764,"ARG_OF_PERICENTER":86.2532,"MEAN_ANOMALY":273.8881,"EPHEMERIS_TYPE":0,"CLASSIFICATION_TYPE":"U","NORAD_CAT_ID":42960,"ELEMENT_SET_NO":999,"REV_AT_EPOCH":43966,"BSTAR":8.3087e-6,"MEAN_MOTION_DOT":4.3e-7,"MEAN_MOTION_DDOT":0},{"OBJECT_NAME":"IRIDIUM 132","OBJECT_ID":"2017-061G","EPOCH":"2026-03-03T10:51:58.564224","MEAN_MOTION":14.34218062,"ECCENTRICITY":0.0002099,"INCLINATION":86.391,"RA_OF_ASC_NODE":69.454,"ARG_OF_PERICENTER":90.1652,"MEAN_ANOMALY":269.9784,"EPHEMERIS_TYPE":0,"CLASSIFICATION_TYPE":"U","NORAD_CAT_ID":42961,"ELEMENT_SET_NO":999,"REV_AT_EPOCH":43966,"BSTAR":2.9354e-5,"MEAN_MOTION_DOT":1.02e-6,"MEAN_MOTION_DDOT":0},{"OBJECT_NAME":"IRIDIUM 136","OBJECT_ID":"2017-061H","EPOCH":"2026-03-03T11:37:38.646912","MEAN_MOTION":14.34217797,"ECCENTRICITY":0.000217,"INCLINATION":86.3908,"RA_OF_ASC_NODE":69.4467,"ARG_OF_PERICENTER":87.1872,"MEAN_ANOMALY":272.9573,"EPHEMERIS_TYPE":0,"CLASSIFICATION_TYPE":"U","NORAD_CAT_ID":42962,"ELEMENT_SET_NO":999,"REV_AT_EPOCH":43968,"BSTAR":-1.167e-6,"MEAN_MOTION_DOT":1.7e-7,"MEAN_MOTION_DDOT":0},{"OBJECT_NAME":"IRIDIUM 139","OBJECT_ID":"2017-061J","EPOCH":"2026-03-03T11:46:46.670880","MEAN_MOTION":14.34217776,"ECCENTRICITY":0.0002094,"INCLINATION":86.3911,"RA_OF_ASC_NODE":69.5044,"ARG_OF_PERICENTER":90.7333,"MEAN_ANOMALY":269.4103,"EPHEMERIS_TYPE":0,"CLASSIFICATION_TYPE":"U","NORAD_CAT_ID":42963,"ELEMENT_SET_NO":999,"REV_AT_EPOCH":43969,"BSTAR":4.6412e-6,"MEAN_MOTION_DOT":3.3e-7,"MEAN_MOTION_DDOT":0},{"OBJECT_NAME":"IRIDIUM 125","OBJECT_ID":"2017-061K","EPOCH":"2026-03-03T11:28:30.571968","MEAN_MOTION":14.34218158,"ECCENTRICITY":0.0002044,"INCLINATION":86.3911,"RA_OF_ASC_NODE":69.569,"ARG_OF_PERICENTER":74.7319,"MEAN_ANOMALY":285.4103,"EPHEMERIS_TYPE":0,"CLASSIFICATION_TYPE":"U","NORAD_CAT_ID":42964,"ELEMENT_SET_NO":999,"REV_AT_EPOCH":43970,"BSTAR":2.2735e-5,"MEAN_MOTION_DOT":8.3e-7,"MEAN_MOTION_DDOT":0},{"OBJECT_NAME":"IRIDIUM 135","OBJECT_ID":"2017-083A","EPOCH":"2026-03-03T07:30:19.611936","MEAN_MOTION":14.34217719,"ECCENTRICITY":0.0002169,"INCLINATION":86.4016,"RA_OF_ASC_NODE":6.2559,"ARG_OF_PERICENTER":85.8966,"MEAN_ANOMALY":274.2478,"EPHEMERIS_TYPE":0,"CLASSIFICATION_TYPE":"U","NORAD_CAT_ID":43070,"ELEMENT_SET_NO":999,"REV_AT_EPOCH":42897,"BSTAR":0.00012803,"MEAN_MOTION_DOT":3.78e-6,"MEAN_MOTION_DDOT":0},{"OBJECT_NAME":"IRIDIUM 138","OBJECT_ID":"2017-083B","EPOCH":"2026-03-03T08:06:51.185952","MEAN_MOTION":14.34217891,"ECCENTRICITY":0.0002389,"INCLINATION":86.4029,"RA_OF_ASC_NODE":5.9246,"ARG_OF_PERICENTER":77.3211,"MEAN_ANOMALY":282.8252,"EPHEMERIS_TYPE":0,"CLASSIFICATION_TYPE":"U","NORAD_CAT_ID":43071,"ELEMENT_SET_NO":999,"REV_AT_EPOCH":42896,"BSTAR":7.7621e-6,"MEAN_MOTION_DOT":4.2e-7,"MEAN_MOTION_DDOT":0},{"OBJECT_NAME":"IRIDIUM 116","OBJECT_ID":"2017-083C","EPOCH":"2026-03-03T09:01:39.163872","MEAN_MOTION":14.34217714,"ECCENTRICITY":0.0001972,"INCLINATION":86.4017,"RA_OF_ASC_NODE":6.2169,"ARG_OF_PERICENTER":92.8085,"MEAN_ANOMALY":267.3336,"EPHEMERIS_TYPE":0,"CLASSIFICATION_TYPE":"U","NORAD_CAT_ID":43072,"ELEMENT_SET_NO":999,"REV_AT_EPOCH":42900,"BSTAR":1.6193e-6,"MEAN_MOTION_DOT":2.4e-7,"MEAN_MOTION_DDOT":0},{"OBJECT_NAME":"IRIDIUM 130","OBJECT_ID":"2017-083D","EPOCH":"2026-03-03T09:56:27.076128","MEAN_MOTION":14.34218375,"ECCENTRICITY":0.0001869,"INCLINATION":86.4022,"RA_OF_ASC_NODE":6.4657,"ARG_OF_PERICENTER":87.6291,"MEAN_ANOMALY":272.5119,"EPHEMERIS_TYPE":0,"CLASSIFICATION_TYPE":"U","NORAD_CAT_ID":43073,"ELEMENT_SET_NO":999,"REV_AT_EPOCH":42895,"BSTAR":5.2154e-5,"MEAN_MOTION_DOT":1.66e-6,"MEAN_MOTION_DDOT":0}]
